[
    {
        "Altitude(m)": 607910.9953366186,
        "Argument of Periapsis(deg)": 0.0,
        "Eccentricity": 0.0,
        "Inclination(deg)": 60.0,
        "Latitude(deg)": -14.292866976653945,
        "Longitude(deg)": 148.44263101547196,
        "Mean Anomaly(deg)": 196.36359999999996,
        "RAAN(deg)": 60.0,
        "Satellite Name": "Test1 276",
        "Satellite Number": 276,
        "Semi-Major Axis(m)": 6980739.136638005,
        "Time(s)": 0
    },
    {
        "Altitude(m)": 608060.2285252815,
        "Argument of Periapsis(deg)": 0.00010418945913296404,
        "Eccentricity": 0.0,
        "Inclination(deg)": 60.0,
        "Latitude(deg)": -14.826528713927722,
        "Longitude(deg)": 148.73123970983121,
        "Mean Anomaly(deg)": 196.9837061454618,
        "RAAN(deg)": 59.99957995086026,
        "Satellite Name": "Test1 276",
        "Satellite Number": 276,
        "Semi-Major Axis(m)": 6980739.136638005,
        "Time(s)": 10
    }
]